{"fetched_at":"2026-03-29T16:36:15Z","count":15609,"tles":[{"name":"STARLINK-3616","line1":"1 51782U 22017Q   26087.89212154  .00001161  00000+0  90979-4 0  9996","line2":"2 51782  53.2168 263.0708 0000560  93.1957 266.9099 15.08857097225089","category":"Starlink"}]}