{
  "norad_id": 51782,
  "name": "STARLINK-3616",
  "history": [
    {
      "epoch": "2026-03-28T21:24:39.301056Z",
      "apogee_km": 540.078529143645,
      "perigee_km": 539.3037323929984,
      "latitude_deg": -1.6763660900999e-05,
      "longitude_deg": 115.60098209800353,
      "height_km": 540.6094437091034,
      "semi_major_axis_km": 6917.828130768321,
      "eccentricity": 5.6e-05,
      "inclination_deg": 53.2168,
      "raan_deg": 263.0708,
      "arg_perigee_deg": 93.1957,
      "mean_anomaly_deg": 266.9099,
      "mean_motion_rev_day": 15.08857097
    }
  ]
}